[{"OBJECT_NAME":"STARLINK-32837","OBJECT_ID":"2025-018G","EPOCH":"2026-03-09T23:18:25.622496","MEAN_MOTION":15.30197311,"ECCENTRICITY":0.00017826,"INCLINATION":53.16,"RA_OF_ASC_NODE":308.1474,"ARG_OF_PERICENTER":168.9853,"MEAN_ANOMALY":191.1188,"EPHEMERIS_TYPE":0,"CLASSIFICATION_TYPE":"U","NORAD_CAT_ID":62812,"ELEMENT_SET_NO":999,"REV_AT_EPOCH":6322,"BSTAR":0.00035972158,"MEAN_MOTION_DOT":0.00010309,"MEAN_MOTION_DDOT":0},{"OBJECT_NAME":"SL-3 R\/B","OBJECT_ID":"1982-079B","EPOCH":"2026-03-09T22:18:18.158976","MEAN_MOTION":15.24805533,"ECCENTRICITY":0.00250364,"INCLINATION":81.1481,"RA_OF_ASC_NODE":192.7939,"ARG_OF_PERICENTER":164.0597,"MEAN_ANOMALY":196.143,"EPHEMERIS_TYPE":0,"CLASSIFICATION_TYPE":"U","NORAD_CAT_ID":13403,"ELEMENT_SET_NO":999,"REV_AT_EPOCH":37773,"BSTAR":0.00032485557,"MEAN_MOTION_DOT":8.157e-5,"MEAN_MOTION_DDOT":0}]
